OBJECT_NAME,OBJECT_ID,EPOCH,MEAN_MOTION,ECCENTRICITY,INCLINATION,RA_OF_ASC_NODE,ARG_OF_PERICENTER,MEAN_ANOMALY,EPHEMERIS_TYPE,CLASSIFICATION_TYPE,NORAD_CAT_ID,ELEMENT_SET_NO,REV_AT_EPOCH,BSTAR,MEAN_MOTION_DOT,MEAN_MOTION_DDOT
PERSEUS-M1,2014-033AF,2026-05-17T01:25:07.752000,14.95519724,.0012766,97.9633,80.6861,46.6737,313.5545,0,U,40039,999,64598,.13826E-3,.1473E-4,0
POLYITAN-1,2014-033AJ,2026-05-16T18:42:32.399424,15.32106761,.0005539,98.0960,160.0968,248.8269,111.2379,0,U,40042,999,64878,.50182048E-3,.15489E-3,0
TIGRISAT,2014-033AK,2026-05-16T20:27:51.077664,14.85017607,.00496134,97.7796,287.5928,175.8470,184.3167,0,U,40043,999,64097,.16079572E-3,.1347E-4,0
AEROCUBE 6A,2014-033AM,2026-05-16T21:27:55.505088,14.97741747,.0040231,97.7220,304.1900,119.1165,241.4094,0,U,40045,999,64193,.38854E-3,.4573E-4,0
AEROCUBE 6B,2014-033AN,2026-05-17T04:39:13.121568,14.99162414,.0038362,97.7170,304.2125,111.5500,248.9819,0,U,40046,999,64211,.3663E-3,.4465E-4,0
CANX-4,2014-034C,2026-05-17T01:52:16.660704,14.81202358,.0014053,98.3162,11.2440,109.0957,251.1777,0,U,40055,999,63992,.80418E-4,.569E-5,0
CANX-5,2014-034D,2026-05-17T03:27:48.892032,14.81219366,.0014051,98.3164,11.3544,109.0801,251.1933,0,U,40056,999,63074,.79461E-4,.562E-5,0
UKUBE-1,2014-037F,2026-05-16T22:59:59.889120,15.13011726,.0000296,98.4237,136.9642,112.9011,247.2248,0,U,40074,999,64383,.34361E-3,.5991E-4,0
BRITE-PL2 (HEWELIUSZ),2014-049B,2026-05-17T00:57:05.061888,14.94465279,.0013476,97.9063,248.8085,207.9127,152.1371,0,U,40119,999,63679,.11013E-3,.113E-4,0
AEROCUBE 5C,2015-058B,2026-05-16T15:41:47.776416,14.91263749,.01298746,64.7685,0.6754,75.6672,285.8819,0,U,40965,999,36095,.20460148E-3,.222E-4,0
AEROCUBE 7,2015-058C,2026-05-17T03:23:00.976128,14.95469785,.0119662,64.7627,342.0416,74.1484,287.2783,0,U,40966,999,36131,.25312E-3,.306E-4,0
FOX-1A (AO-85),2015-058D,2026-05-16T23:01:53.010048,14.90773374,.0129128,64.7768,16.0156,68.8392,292.6462,0,U,40967,999,10891,.20908E-3,.2238E-4,0
SINOD-D 1,2015-058E,2026-05-16T22:07:44.517792,14.95647045,.0117636,64.7762,356.8045,65.6323,295.7017,0,U,40968,999,11198,.26236E-3,.3179E-4,0
SNAP-3 ALICE,2015-058G,2026-05-17T04:58:41.498400,15.53850258,.0033297,64.7526,210.4584,27.8795,332.4122,0,U,40970,999,11206,.74986E-3,.49758E-3,0
LMRST-SAT,2015-058H,2026-05-17T00:59:25.054080,14.90399499,.0130915,64.7773,12.0416,70.8360,290.6868,0,U,40971,999,10891,.21298E-3,.2269E-4,0
SNAP-3 EDDIE,2015-058J,2026-05-17T03:45:49.192704,15.55016455,.003357,64.7443,201.5793,31.6611,328.6541,0,U,40972,999,11419,.97045E-3,.675E-3,0
PROPCUBE 3,2015-058K,2026-05-16T14:49:07.158144,14.94030179,.0123036,64.7692,351.1555,72.4933,288.9582,0,U,40973,999,11008,.23953E-3,.2794E-4,0
BISONSAT,2015-058L,2026-05-16T19:51:38.369088,15.15522919,.00787002,64.7599,274.9735,60.6207,300.2746,0,U,40974,999,11086,.46124777E-3,.9298E-4,0
SNAP-3 JIMI,2015-058M,2026-05-16T21:33:44.383104,15.01961463,.0105061,64.7650,318.7426,68.3488,292.8779,0,U,40975,999,10952,.32845E-3,.4672E-4,0
PROPCUBE 1 (FLORA),2015-058N,2026-05-17T04:03:24.122016,14.89031774,.0129714,64.7762,31.3560,73.0672,288.4612,0,U,40976,999,11164,.19721E-3,.2003E-4,0
SINOD-D 3,2015-058P,2026-05-17T01:05:23.486208,14.93762092,.0118177,64.7737,13.0474,70.5740,290.8099,0,U,40977,999,11010,.26175E-3,.3012E-4,0
HORYU-4,2016-012D,2026-05-17T03:59:58.591968,15.79166329,.0004882,30.9884,303.6197,62.1428,297.9724,0,U,41340,999,56588,.71367E-3,.135616E-2,0
RAVAN,2016-067B,2026-05-17T04:22:27.823008,15.51678128,.000719,97.9937,23.2468,109.0577,251.1453,0,U,41849,999,52288,.53247E-3,.31674E-3,0
CELTEE 1,2016-067C,2026-05-17T03:00:01.529280,15.19352679,.0001577,98.0712,1.5757,56.1369,304.0014,0,U,41850,999,52116,.18093E-3,.3747E-4,0
OPTICUBE 04,2016-067D,2026-05-17T02:58:54.435360,15.09517540,.0014715,98.0730,347.7854,218.7218,141.2956,0,U,41851,999,52048,.1022E-3,.157E-4,0
AEROCUBE 8D,2016-067E,2026-05-17T04:02:06.354240,15.23930106,.0002203,98.0720,4.9853,222.0295,138.0772,0,U,41852,999,52134,.22314E-3,.5312E-4,0
AEROCUBE 8C,2016-067F,2026-05-17T03:10:40.870272,15.24169649,.0005877,98.0591,2.2151,153.6949,206.4586,0,U,41853,999,52133,.23828E-3,.5721E-4,0
CORVUS BC2,2017-042X,2026-05-16T21:41:45.136032,15.06081542,.0012165,97.4038,299.4812,212.2828,147.7656,0,U,42846,999,48235,.13924E-3,.1977E-4,0
CORVUS BC1,2017-042Y,2026-05-16T21:39:06.496992,15.06252371,.0011702,97.4068,300.2730,187.2002,172.9059,0,U,42847,999,48238,.12959E-3,.1844E-4,0
MAKERSAT 0,2017-073D,2026-05-17T03:26:42.457344,15.30717192,.0110965,97.4672,19.4462,24.5327,336.1136,0,U,43016,999,46171,.52181E-3,.18696E-3,0
