PERSEUS-M1              
1 40039U 14033AF  26137.05911750  .00001473  00000+0  13826-3 0  9991
2 40039  97.9633  80.6861 0012766  46.6737 313.5545 14.95519724645984
POLYITAN-1              
1 40042U 14033AJ  26136.77954166  .00015489  00000+0  50182-3 0  9999
2 40042  98.0960 160.0968 0005539 248.8269 111.2379 15.32106761648784
TIGRISAT                
1 40043U 14033AK  26136.85267451  .00001347  00000+0  16080-3 0  9990
2 40043  97.7796 287.5928 0049613 175.8470 184.3167 14.85017607640979
AEROCUBE 6A             
1 40045U 14033AM  26136.89439242  .00004573  00000+0  38854-3 0  9992
2 40045  97.7220 304.1900 0040231 119.1165 241.4094 14.97741747641931
AEROCUBE 6B             
1 40046U 14033AN  26137.19390187  .00004465  00000+0  36630-3 0  9991
2 40046  97.7170 304.2125 0038362 111.5500 248.9819 14.99162414642115
CANX-4                  
1 40055U 14034C   26137.07797061  .00000569  00000+0  80418-4 0  9996
2 40055  98.3162  11.2440 0014053 109.0957 251.1777 14.81202358639924
CANX-5                  
1 40056U 14034D   26137.14431588  .00000562  00000+0  79461-4 0  9993
2 40056  98.3164  11.3544 0014051 109.0801 251.1933 14.81219366630741
UKUBE-1                 
1 40074U 14037F   26136.95833205  .00005991  00000+0  34361-3 0  9996
2 40074  98.4237 136.9642 0000296 112.9011 247.2248 15.13011726643833
BRITE-PL2 (HEWELIUSZ)   
1 40119U 14049B   26137.03964192  .00001130  00000+0  11013-3 0  9999
2 40119  97.9063 248.8085 0013476 207.9127 152.1371 14.94465279636797
AEROCUBE 5C             
1 40965U 15058B   26136.65402519  .00002220  00000+0  20460-3 0  9993
2 40965  64.7685   0.6754 0129874  75.6672 285.8819 14.91263749360958
AEROCUBE 7              
1 40966U 15058C   26137.14098352  .00003060  00000+0  25312-3 0  9999
2 40966  64.7627 342.0416 0119662  74.1484 287.2783 14.95469785361311
FOX-1A (AO-85)          
1 40967U 15058D   26136.95964132  .00002238  00000+0  20908-3 0  9998
2 40967  64.7768  16.0156 0129128  68.8392 292.6462 14.90773374108919
SINOD-D 1               
1 40968U 15058E   26136.92204303  .00003179  00000+0  26236-3 0  9998
2 40968  64.7762 356.8045 0117636  65.6323 295.7017 14.95647045111987
SNAP-3 ALICE            
1 40970U 15058G   26137.20742475  .00049758  00000+0  74986-3 0  9998
2 40970  64.7526 210.4584 0033297  27.8795 332.4122 15.53850258112067
LMRST-SAT               
1 40971U 15058H   26137.04126220  .00002269  00000+0  21298-3 0  9999
2 40971  64.7773  12.0416 0130915  70.8360 290.6868 14.90399499108919
SNAP-3 EDDIE            
1 40972U 15058J   26137.15681936  .00067500  00000+0  97045-3 0  9994
2 40972  64.7443 201.5793 0033570  31.6611 328.6541 15.55016455114197
PROPCUBE 3              
1 40973U 15058K   26136.61744396  .00002794  00000+0  23953-3 0  9996
2 40973  64.7692 351.1555 0123036  72.4933 288.9582 14.94030179110087
BISONSAT                
1 40974U 15058L   26136.82752742  .00009298  00000+0  46125-3 0  9996
2 40974  64.7599 274.9735 0078700  60.6207 300.2746 15.15522919110864
SNAP-3 JIMI             
1 40975U 15058M   26136.89843036  .00004672  00000+0  32845-3 0  9996
2 40975  64.7650 318.7426 0105061  68.3488 292.8779 15.01961463109523
PROPCUBE 1 (FLORA)      
1 40976U 15058N   26137.16902919  .00002003  00000+0  19721-3 0  9998
2 40976  64.7762  31.3560 0129714  73.0672 288.4612 14.89031774111645
SINOD-D 3               
1 40977U 15058P   26137.04541072  .00003012  00000+0  26175-3 0  9997
2 40977  64.7737  13.0474 0118177  70.5740 290.8099 14.93762092110103
HORYU-4                 
1 41340U 16012D   26137.16665037  .00135616  00000+0  71367-3 0  9993
2 41340  30.9884 303.6197 0004882  62.1428 297.9724 15.79166329565881
RAVAN                   
1 41849U 16067B   26137.18226647  .00031674  00000+0  53247-3 0  9995
2 41849  97.9937  23.2468 0007190 109.0577 251.1453 15.51678128522883
CELTEE 1                
1 41850U 16067C   26137.12501770  .00003747  00000+0  18093-3 0  9994
2 41850  98.0712   1.5757 0001577  56.1369 304.0014 15.19352679521167
OPTICUBE 04             
1 41851U 16067D   26137.12424115  .00001570  00000+0  10220-3 0  9998
2 41851  98.0730 347.7854 0014715 218.7218 141.2956 15.09517540520487
AEROCUBE 8D             
1 41852U 16067E   26137.16812910  .00005312  00000+0  22314-3 0  9992
2 41852  98.0720   4.9853 0002203 222.0295 138.0772 15.23930106521349
AEROCUBE 8C             
1 41853U 16067F   26137.13241748  .00005721  00000+0  23828-3 0  9990
2 41853  98.0591   2.2151 0005877 153.6949 206.4586 15.24169649521332
CORVUS BC2              
1 42846U 17042X   26136.90399463  .00001977  00000+0  13924-3 0  9994
2 42846  97.4038 299.4812 0012165 212.2828 147.7656 15.06081542482352
CORVUS BC1              
1 42847U 17042Y   26136.90215853  .00001844  00000+0  12959-3 0  9995
2 42847  97.4068 300.2730 0011702 187.2002 172.9059 15.06252371482387
MAKERSAT 0              
1 43016U 17073D   26137.14354696  .00018696  00000+0  52181-3 0  9998
2 43016  97.4672  19.4462 0110965  24.5327 336.1136 15.30717192461710
